NORAD_CAT_ID,OBJECT_NAME,OBJECT_TYPE,EPOCH,MEAN_MOTION,ECCENTRICITY,INCLINATION,RA_OF_ASC_NODE,ARG_OF_PERICENTER,MEAN_ANOMALY,BSTAR,MEAN_MOTION_DOT,MEAN_MOTION_DDOT,TLE_LINE0,TLE_LINE1,TLE_LINE2,SEMIMAJOR_AXIS,PERIOD,APOGEE,PERIGEE,DECAYED
54190.0,STARLINK-5281,PAYLOAD,2024-03-12 02:12:19,15.08841447,0.0001211,53.2181,20.5534,89.4639,270.6492,2.6064e-05,1.27e-06,0.0,0 STARLINK-5281,1 54190U 22141AK  24072.09189668  .00000127  00000-0  26064-4 0  9993,2 54190  53.2181  20.5534 0001211  89.4639 270.6492 15.08841447 76380,6917.876,95.437,540.579,538.903,0.0
54190.0,STARLINK-5281,PAYLOAD,2024-03-12 13:20:01,15.08843257,0.0001201,53.2185,18.4723,88.3856,271.7273,0.00010061,1.314e-05,0.0,0 STARLINK-5281,1 54190U 22141AK  24072.55557371  .00001314  00000-0  10061-3 0  9992,2 54190  53.2185  18.4723 0001201  88.3856 271.7273 15.08843257 76221,6917.87,95.437,540.566,538.905,0.0
54190.0,STARLINK-5281,PAYLOAD,2024-03-13 03:38:30,15.08829773,0.0001208,53.2202,15.7956,77.2212,282.8916,0.00019998,2.895e-05,0.0,0 STARLINK-5281,1 54190U 22141AK  24073.15174225  .00002895  00000-0  19998-3 0  9995,2 54190  53.2202  15.7956 0001208  77.2212 282.8916 15.08829773 76548,6917.912,95.438,540.612,538.941,0.0
54190.0,STARLINK-5281,PAYLOAD,2024-03-13 19:32:21,15.08838617,0.000134,53.2192,12.8218,90.0412,270.0734,5.0919e-05,5.23e-06,0.0,0 STARLINK-5281,1 54190U 22141AK  24073.81414172  .00000523  00000-0  50919-4 0  9991,2 54190  53.2192  12.8218 0001340  90.0412 270.0734 15.08838617 76417,6917.885,95.438,540.677,538.823,0.0
54190.0,STARLINK-5281,PAYLOAD,2024-03-14 05:04:39,15.08852378,0.0001389,53.2195,11.0374,84.2864,275.8286,0.00011426,1.532e-05,0.0,0 STARLINK-5281,1 54190U 22141AK  24074.21157138  .00001532  00000-0  11426-3 0  9992,2 54190  53.2195  11.0374 0001389  84.2864 275.8286 15.08852378 76700,6917.843,95.437,540.668,538.747,0.0
54190.0,STARLINK-5281,PAYLOAD,2024-03-15 01:44:41,15.08838921,0.0001471,53.2189,7.1747,102.3265,257.7892,3.4705e-05,2.64e-06,0.0,0 STARLINK-5281,1 54190U 22141AK  24075.07270112  .00000264  00000-0  34705-4 0  9992,2 54190  53.2189   7.1747 0001471 102.3265 257.7892 15.08838921 76836,6917.884,95.438,540.766,538.731,0.0
54190.0,STARLINK-5281,PAYLOAD,2024-03-15 22:24:41,15.08850003,0.0001737,53.2201,3.301,124.75,235.3656,8.1312e-07,-2.75e-06,0.0,0 STARLINK-5281,1 54190U 22141AK  24075.93381363 -.00000275  00000-0  81312-6 0  9999,2 54190  53.2201   3.3010 0001737 124.7500 235.3656 15.08850003 76731,6917.85,95.437,540.916,538.513,0.0
54190.0,STARLINK-5281,PAYLOAD,2024-03-16 01:35:27,15.08852663,0.0001762,53.2202,2.7052,126.3283,233.7872,1.3457e-05,-7.4e-07,0.0,0 STARLINK-5281,1 54190U 22141AK  24076.06629091 -.00000074  00000-0  13457-4 0  9997,2 54190  53.2202   2.7052 0001762 126.3283 233.7872 15.08852663 76988,6917.842,95.437,540.926,538.488,0.0
54190.0,STARLINK-5281,PAYLOAD,2024-03-16 20:40:06,15.08842846,0.0001735,53.2198,359.148,101.413,258.7057,7.6677e-06,-1.66e-06,0.0,0 STARLINK-5281,1 54190U 22141AK  24076.86118073 -.00000166  00000-0  76677-5 0  9994,2 54190  53.2198 359.1480 0001735 101.4130 258.7057 15.08842846 77100,6917.872,95.437,540.937,538.536,0.0
54190.0,STARLINK-5281,PAYLOAD,2024-03-16 22:15:29,15.08843271,0.0001483,53.2184,358.8476,105.497,254.6186,-1.3273e-05,-4.99e-06,0.0,0 STARLINK-5281,1 54190U 22141AK  24076.92741950 -.00000499  00000-0 -13273-4 0  9999,2 54190  53.2184 358.8476 0001483 105.4970 254.6186 15.08843271 76887,6917.87,95.437,540.761,538.709,0.0
54190.0,STARLINK-5281,PAYLOAD,2024-03-17 04:37:01,15.08843152,0.0001465,53.2191,357.6567,109.5543,250.5608,3.4588e-05,2.63e-06,0.0,0 STARLINK-5281,1 54190U 22141AK  24077.19237759  .00000263  00000-0  34588-4 0  9995,2 54190  53.2191 357.6567 0001465 109.5543 250.5608 15.08843152 76921,6917.871,95.437,540.749,538.722,0.0
54190.0,STARLINK-5281,PAYLOAD,2024-03-17 22:06:16,15.08843968,0.0001231,53.2186,354.3863,91.3841,268.7292,-2.2023e-05,-6.38e-06,0.0,0 STARLINK-5281,1 54190U 22141AK  24077.92101952 -.00000638  00000-0 -22023-4 0  9990,2 54190  53.2186 354.3863 0001231  91.3841 268.7292 15.08843968 77036,6917.868,95.437,540.585,538.882,0.0
54190.0,STARLINK-5281,PAYLOAD,2024-03-18 01:17:01,15.0884922,0.0001614,53.2191,353.7917,116.6722,243.4436,-9.9347e-06,-4.46e-06,0.0,0 STARLINK-5281,1 54190U 22141AK  24078.05349485 -.00000446  00000-0 -99347-5 0  9991,2 54190  53.2191 353.7917 0001614 116.6722 243.4436 15.08849220 77283,6917.852,95.437,540.834,538.601,0.0
54190.0,STARLINK-5281,PAYLOAD,2024-03-18 18:46:17,15.08852721,0.0001437,53.2196,350.5181,111.4157,248.6989,-0.00020645,-3.573e-05,0.0,0 STARLINK-5281,1 54190U 22141AK  24078.78214131 -.00003573  00000-0 -20645-3 0  9997,2 54190  53.2196 350.5181 0001437 111.4157 248.6989 15.08852721 77396,6917.842,95.437,540.701,538.712,0.0
54190.0,STARLINK-5281,PAYLOAD,2024-03-18 21:57:03,15.08838311,0.0001367,53.2188,349.9258,103.141,256.9735,4.9991e-05,5.08e-06,0.0,0 STARLINK-5281,1 54190U 22141AK  24078.91462198  .00000508  00000-0  49991-4 0  9999,2 54190  53.2188 349.9258 0001367 103.1410 256.9735 15.08838311 77183,6917.886,95.438,540.696,538.805,0.0
54190.0,STARLINK-5281,PAYLOAD,2024-03-19 04:18:35,15.08843725,0.00014,53.2194,348.7357,111.6662,248.448,8.3266e-05,1.038e-05,0.0,0 STARLINK-5281,1 54190U 22141AK  24079.17957793  .00001038  00000-0  83266-4 0  9990,2 54190  53.2194 348.7357 0001400 111.6662 248.4480 15.08843725 77221,6917.869,95.437,540.703,538.766,0.0
54190.0,STARLINK-5281,PAYLOAD,2024-03-19 21:47:49,15.08850441,0.0001355,53.2189,345.4647,111.3674,248.7463,4.2769e-05,3.93e-06,0.0,0 STARLINK-5281,1 54190U 22141AK  24079.90821377  .00000393  00000-0  42769-4 0  9995,2 54190  53.2189 345.4647 0001355 111.3674 248.7463 15.08850441 77564,6917.848,95.437,540.651,538.776,0.0
54190.0,STARLINK-5281,PAYLOAD,2024-03-20 00:58:35,15.08858991,0.0001696,53.2184,344.8782,85.606,274.5126,4.3129e-06,-2.19e-06,0.0,0 STARLINK-5281,1 54190U 22141AK  24080.04069217 -.00000219  00000-0  43129-5 0  9999,2 54190  53.2184 344.8782 0001696  85.6060 274.5126 15.08858991 77585,6917.822,95.436,540.861,538.514,0.0
54190.0,STARLINK-5281,PAYLOAD,2024-03-20 21:38:37,15.08834919,0.0001596,53.2182,341.0038,74.6885,285.4283,5.9178e-05,6.54e-06,0.0,0 STARLINK-5281,1 54190U 22141AK  24080.90182774  .00000654  00000-0  59178-4 0  9990,2 54190  53.2182 341.0038 0001596  74.6885 285.4283 15.08834919 77486,6917.896,95.438,540.865,538.657,0.0
54190.0,STARLINK-5281,PAYLOAD,2024-03-21 02:24:46,15.08835978,0.0001259,53.218,340.111,92.9912,267.1224,-6.8975e-06,-3.98e-06,0.0,0 STARLINK-5281,1 54190U 22141AK  24081.10054276 -.00000398  00000-0 -68975-5 0  9991,2 54190  53.2180 340.1110 0001259  92.9912 267.1224 15.08835978 77742,6917.893,95.438,540.629,538.887,0.0
54190.0,STARLINK-5281,PAYLOAD,2024-03-21 10:21:42,15.08834153,0.0001188,53.218,338.623,106.1147,253.9976,-2.5044e-06,-3.28e-06,0.0,0 STARLINK-5281,1 54190U 22141AK  24081.43174425 -.00000328  00000-0 -25044-5 0  9999,2 54190  53.2180 338.6230 0001188 106.1147 253.9976 15.08834153 77567,6917.898,95.438,540.585,538.941,0.0
54190.0,STARLINK-5281,PAYLOAD,2024-03-21 21:29:24,15.08848084,0.0001067,53.2174,336.5437,87.6515,272.4599,7.9338e-05,9.75e-06,0.0,0 STARLINK-5281,1 54190U 22141AK  24081.89541853  .00000975  00000-0  79338-4 0  9992,2 54190  53.2174 336.5437 0001067  87.6515 272.4599 15.08848084 77637,6917.856,95.437,540.459,538.983,0.0
54190.0,STARLINK-5281,PAYLOAD,2024-03-22 02:15:32,15.08865199,0.0001097,53.2164,335.6536,119.0478,241.0624,0.00055509,8.563e-05,0.0,0 STARLINK-5281,1 54190U 22141AK  24082.09412842  .00008563  00000-0  55509-3 0  9994,2 54190  53.2164 335.6536 0001097 119.0478 241.0624 15.08865199 77892,6917.803,95.436,540.427,538.909,0.0
54190.0,STARLINK-5281,PAYLOAD,2024-03-22 21:20:11,15.08845347,0.0001742,53.217,332.0828,112.7285,247.3892,0.00020674,3.004e-05,0.0,0 STARLINK-5281,1 54190U 22141AK  24082.88901945  .00003004  00000-0  20674-3 0  9998,2 54190  53.2170 332.0828 0001742 112.7285 247.3892 15.08845347 78011,6917.864,95.437,540.934,538.524,0.0
54190.0,STARLINK-5281,PAYLOAD,2024-03-23 21:10:58,15.08840003,0.0001546,53.2191,327.6237,93.5931,266.5238,5.2385e-05,5.46e-06,0.0,0 STARLINK-5281,1 54190U 22141AK  24083.88262522  .00000546  00000-0  52385-4 0  9993,2 54190  53.2191 327.6237 0001546  93.5931 266.5238 15.08840003 78161,6917.88,95.438,540.815,538.676,0.0
54190.0,STARLINK-5281,PAYLOAD,2024-03-23 22:46:21,15.08842469,0.0001478,53.2179,327.3229,97.1025,263.0135,2.4173e-05,9.7e-07,0.0,0 STARLINK-5281,1 54190U 22141AK  24083.94886247  .00000097  00000-0  24173-4 0  9991,2 54190  53.2179 327.3229 0001478  97.1025 263.0135 15.08842469 77944,6917.873,95.437,540.76,538.715,0.0
54190.0,STARLINK-5281,PAYLOAD,2024-03-24 22:37:09,15.08856122,0.0001527,53.2167,322.8712,95.7487,264.368,0.00062128,9.618e-05,0.0,0 STARLINK-5281,1 54190U 22141AK  24084.94246784  .00009618  00000-0  62128-3 0  9997,2 54190  53.2167 322.8712 0001527  95.7487 264.3680 15.08856122 78096,6917.831,95.437,540.752,538.64,0.0
54190.0,STARLINK-5281,PAYLOAD,2024-03-25 01:47:55,15.08864891,0.0001341,53.2157,322.2691,100.3789,259.7354,0.0010117,0.00015861,0.0,0 STARLINK-5281,1 54190U 22141AK  24085.07494403  .00015861  00000-0  10117-2 0  9992,2 54190  53.2157 322.2691 0001341 100.3789 259.7354 15.08864891 78343,6917.804,95.436,540.597,538.742,0.0
54190.0,STARLINK-5281,PAYLOAD,2024-03-25 20:52:32,15.08830256,0.000136,53.2178,318.7056,118.5708,241.5422,-0.00063574,-0.00010389,0.0,0 STARLINK-5281,1 54190U 22141AK  24085.86981872 -.00010389  00000-0 -63574-3 0  9998,2 54190  53.2178 318.7056 0001360 118.5708 241.5422 15.08830256 78460,6917.91,95.438,540.716,538.834,0.0
54190.0,STARLINK-5281,PAYLOAD,2024-03-25 22:27:55,15.08821714,0.0001264,53.2173,318.4055,95.7895,264.3241,-0.00055135,-9.047e-05,0.0,0 STARLINK-5281,1 54190U 22141AK  24085.93606445 -.00009047  00000-0 -55135-3 0  9999,2 54190  53.2173 318.4055 0001264  95.7895 264.3241 15.08821714 78244,6917.936,95.439,540.676,538.927,0.0
